CCSDS_OMM_VERS = 2.0
CREATION_DATE  = 
ORIGINATOR     = 

OBJECT_NAME    = ATLAS CENTAUR R/B
OBJECT_ID      = 1972-065B
CENTER_NAME    = EARTH
REF_FRAME      = TEME
TIME_SYSTEM    = UTC
MEAN_ELEMENT_THEORY = SGP/SGP4

EPOCH          = 2025-12-28T01:37:22.140768
MEAN_MOTION    = 14.77450221
ECCENTRICITY   = .00333515
INCLINATION    = 35.0025
RA_OF_ASC_NODE = 5.4088
ARG_OF_PERICENTER = 128.4998
MEAN_ANOMALY   = 231.8700

EPHEMERIS_TYPE = 0
CLASSIFICATION_TYPE = U
NORAD_CAT_ID   = 6155
ELEMENT_SET_NO = 999
REV_AT_EPOCH   = 83066
BSTAR          = .2178713E-3
MEAN_MOTION_DOT = .1568E-4
MEAN_MOTION_DDOT = 0

CCSDS_OMM_VERS = 2.0
CREATION_DATE  = 
ORIGINATOR     = 

OBJECT_NAME    = SL-8 R/B
OBJECT_ID      = 1975-112B
CENTER_NAME    = EARTH
REF_FRAME      = TEME
TIME_SYSTEM    = UTC
MEAN_ELEMENT_THEORY = SGP/SGP4

EPOCH          = 2025-12-28T18:14:43.160928
MEAN_MOTION    = 14.38156287
ECCENTRICITY   = .00166928
INCLINATION    = 74.0600
RA_OF_ASC_NODE = 149.3902
ARG_OF_PERICENTER = 259.1646
MEAN_ANOMALY   = 100.7630

EPHEMERIS_TYPE = 0
CLASSIFICATION_TYPE = U
NORAD_CAT_ID   = 8459
ELEMENT_SET_NO = 999
REV_AT_EPOCH   = 62167
BSTAR          = .12814541E-3
MEAN_MOTION_DOT = .363E-5
MEAN_MOTION_DDOT = 0

CCSDS_OMM_VERS = 2.0
CREATION_DATE  = 
ORIGINATOR     = 

OBJECT_NAME    = SL-3 R/B
OBJECT_ID      = 1977-057B
CENTER_NAME    = EARTH
REF_FRAME      = TEME
TIME_SYSTEM    = UTC
MEAN_ELEMENT_THEORY = SGP/SGP4

EPOCH          = 2025-12-28T23:12:57.508128
MEAN_MOTION    = 15.43355588
ECCENTRICITY   = .00075385
INCLINATION    = 97.5690
RA_OF_ASC_NODE = 166.9321
ARG_OF_PERICENTER = 169.6662
MEAN_ANOMALY   = 190.4742

EPHEMERIS_TYPE = 0
CLASSIFICATION_TYPE = U
NORAD_CAT_ID   = 10114
ELEMENT_SET_NO = 999
REV_AT_EPOCH   = 65741
BSTAR          = .36804844E-3
MEAN_MOTION_DOT = .16353E-3
MEAN_MOTION_DDOT = 0

CCSDS_OMM_VERS = 2.0
CREATION_DATE  = 
ORIGINATOR     = 

OBJECT_NAME    = SEASAT 1
OBJECT_ID      = 1978-064A
CENTER_NAME    = EARTH
REF_FRAME      = TEME
TIME_SYSTEM    = UTC
MEAN_ELEMENT_THEORY = SGP/SGP4

EPOCH          = 2025-12-28T20:52:12.855072
MEAN_MOTION    = 14.46080304
ECCENTRICITY   = .00012568
INCLINATION    = 108.0142
RA_OF_ASC_NODE = 336.8762
ARG_OF_PERICENTER = 257.6023
MEAN_ANOMALY   = 102.4982

EPHEMERIS_TYPE = 0
CLASSIFICATION_TYPE = U
NORAD_CAT_ID   = 10967
ELEMENT_SET_NO = 999
REV_AT_EPOCH   = 49627
BSTAR          = .21908449E-3
MEAN_MOTION_DOT = .646E-5
MEAN_MOTION_DDOT = 0

CCSDS_OMM_VERS = 2.0
CREATION_DATE  = 
ORIGINATOR     = 

OBJECT_NAME    = SL-14 R/B
OBJECT_ID      = 1979-011B
CENTER_NAME    = EARTH
REF_FRAME      = TEME
TIME_SYSTEM    = UTC
MEAN_ELEMENT_THEORY = SGP/SGP4

EPOCH          = 2025-12-28T22:52:42.624768
MEAN_MOTION    = 14.91792259
ECCENTRICITY   = .00147581
INCLINATION    = 82.5239
RA_OF_ASC_NODE = 163.6667
ARG_OF_PERICENTER = 296.4039
MEAN_ANOMALY   = 63.5666

EPHEMERIS_TYPE = 0
CLASSIFICATION_TYPE = U
NORAD_CAT_ID   = 11267
ELEMENT_SET_NO = 999
REV_AT_EPOCH   = 51823
BSTAR          = .10113664E-3
MEAN_MOTION_DOT = .1046E-4
MEAN_MOTION_DDOT = 0

CCSDS_OMM_VERS = 2.0
CREATION_DATE  = 
ORIGINATOR     = 

OBJECT_NAME    = SL-8 R/B
OBJECT_ID      = 1979-089B
CENTER_NAME    = EARTH
REF_FRAME      = TEME
TIME_SYSTEM    = UTC
MEAN_ELEMENT_THEORY = SGP/SGP4

EPOCH          = 2025-12-28T22:16:49.039968
MEAN_MOTION    = 14.42294223
ECCENTRICITY   = .00148278
INCLINATION    = 74.0671
RA_OF_ASC_NODE = 222.0175
ARG_OF_PERICENTER = 49.8245
MEAN_ANOMALY   = 310.4207

EPHEMERIS_TYPE = 0
CLASSIFICATION_TYPE = U
NORAD_CAT_ID   = 11574
ELEMENT_SET_NO = 999
REV_AT_EPOCH   = 42590
BSTAR          = .11660569E-3
MEAN_MOTION_DOT = .359E-5
MEAN_MOTION_DDOT = 0

CCSDS_OMM_VERS = 2.0
CREATION_DATE  = 
ORIGINATOR     = 

OBJECT_NAME    = SL-14 R/B
OBJECT_ID      = 1980-005B
CENTER_NAME    = EARTH
REF_FRAME      = TEME
TIME_SYSTEM    = UTC
MEAN_ELEMENT_THEORY = SGP/SGP4

EPOCH          = 2025-12-28T18:51:20.827008
MEAN_MOTION    = 14.90811382
ECCENTRICITY   = .00168738
INCLINATION    = 82.5139
RA_OF_ASC_NODE = 14.4796
ARG_OF_PERICENTER = 44.3228
MEAN_ANOMALY   = 315.9339

EPHEMERIS_TYPE = 0
CLASSIFICATION_TYPE = U
NORAD_CAT_ID   = 11672
ELEMENT_SET_NO = 999
REV_AT_EPOCH   = 46592
BSTAR          = .74623795E-4
MEAN_MOTION_DOT = .761E-5
MEAN_MOTION_DDOT = 0

CCSDS_OMM_VERS = 2.0
CREATION_DATE  = 
ORIGINATOR     = 

OBJECT_NAME    = SL-8 R/B
OBJECT_ID      = 1981-003B
CENTER_NAME    = EARTH
REF_FRAME      = TEME
TIME_SYSTEM    = UTC
MEAN_ELEMENT_THEORY = SGP/SGP4

EPOCH          = 2025-12-28T17:41:18.681792
MEAN_MOTION    = 15.07563051
ECCENTRICITY   = .0276963
INCLINATION    = 82.9359
RA_OF_ASC_NODE = 355.4836
ARG_OF_PERICENTER = 65.3668
MEAN_ANOMALY   = 297.6138

EPHEMERIS_TYPE = 0
CLASSIFICATION_TYPE = U
NORAD_CAT_ID   = 12139
ELEMENT_SET_NO = 999
REV_AT_EPOCH   = 30397
BSTAR          = .63108837E-3
MEAN_MOTION_DOT = .23863E-3
MEAN_MOTION_DDOT = 0

CCSDS_OMM_VERS = 2.0
CREATION_DATE  = 
ORIGINATOR     = 

OBJECT_NAME    = SL-3 R/B
OBJECT_ID      = 1981-046B
CENTER_NAME    = EARTH
REF_FRAME      = TEME
TIME_SYSTEM    = UTC
MEAN_ELEMENT_THEORY = SGP/SGP4

EPOCH          = 2025-12-28T22:34:39.609408
MEAN_MOTION    = 15.39962323
ECCENTRICITY   = .00180086
INCLINATION    = 81.2326
RA_OF_ASC_NODE = 14.5511
ARG_OF_PERICENTER = 264.7554
MEAN_ANOMALY   = 95.1633

EPHEMERIS_TYPE = 0
CLASSIFICATION_TYPE = U
NORAD_CAT_ID   = 12465
ELEMENT_SET_NO = 999
REV_AT_EPOCH   = 42753
BSTAR          = .39583433E-3
MEAN_MOTION_DOT = .15901E-3
MEAN_MOTION_DDOT = 0

CCSDS_OMM_VERS = 2.0
CREATION_DATE  = 
ORIGINATOR     = 

OBJECT_NAME    = SL-3 R/B
OBJECT_ID      = 1981-103B
CENTER_NAME    = EARTH
REF_FRAME      = TEME
TIME_SYSTEM    = UTC
MEAN_ELEMENT_THEORY = SGP/SGP4

EPOCH          = 2025-12-28T21:59:51.419040
MEAN_MOTION    = 15.20432999
ECCENTRICITY   = .00131659
INCLINATION    = 81.1593
RA_OF_ASC_NODE = 296.4065
ARG_OF_PERICENTER = 156.2387
MEAN_ANOMALY   = 203.9454

EPHEMERIS_TYPE = 0
CLASSIFICATION_TYPE = U
NORAD_CAT_ID   = 12904
ELEMENT_SET_NO = 999
REV_AT_EPOCH   = 96247
BSTAR          = .40785367E-3
MEAN_MOTION_DOT = .8941E-4
MEAN_MOTION_DDOT = 0

CCSDS_OMM_VERS = 2.0
CREATION_DATE  = 
ORIGINATOR     = 

OBJECT_NAME    = SL-3 R/B
OBJECT_ID      = 1982-013B
CENTER_NAME    = EARTH
REF_FRAME      = TEME
TIME_SYSTEM    = UTC
MEAN_ELEMENT_THEORY = SGP/SGP4

EPOCH          = 2025-12-28T22:57:52.263360
MEAN_MOTION    = 15.21234196
ECCENTRICITY   = .00240097
INCLINATION    = 81.1741
RA_OF_ASC_NODE = 243.6263
ARG_OF_PERICENTER = 59.1557
MEAN_ANOMALY   = 301.2032

EPHEMERIS_TYPE = 0
CLASSIFICATION_TYPE = U
NORAD_CAT_ID   = 13068
ELEMENT_SET_NO = 999
REV_AT_EPOCH   = 39359
BSTAR          = .30815555E-3
MEAN_MOTION_DOT = .6959E-4
MEAN_MOTION_DDOT = 0

CCSDS_OMM_VERS = 2.0
CREATION_DATE  = 
ORIGINATOR     = 

OBJECT_NAME    = SL-3 R/B
OBJECT_ID      = 1982-039B
CENTER_NAME    = EARTH
REF_FRAME      = TEME
TIME_SYSTEM    = UTC
MEAN_ELEMENT_THEORY = SGP/SGP4

EPOCH          = 2025-12-28T21:05:46.368096
MEAN_MOTION    = 15.09624153
ECCENTRICITY   = .00294636
INCLINATION    = 81.1702
RA_OF_ASC_NODE = 297.5284
ARG_OF_PERICENTER = 197.4020
MEAN_ANOMALY   = 162.6198

EPHEMERIS_TYPE = 0
CLASSIFICATION_TYPE = U
NORAD_CAT_ID   = 13154
ELEMENT_SET_NO = 999
REV_AT_EPOCH   = 37095
BSTAR          = .27274232E-3
MEAN_MOTION_DOT = .4452E-4
MEAN_MOTION_DDOT = 0

