ATLAS CENTAUR R/B       
1 06155U 72065B   25362.06761737  .00001568  00000+0  21787-3 0  9999
2 06155  35.0025   5.4088 0033351 128.4998 231.8700 14.77450221830662
SL-8 R/B                
1 08459U 75112B   25362.76022177  .00000363  00000+0  12815-3 0  9993
2 08459  74.0600 149.3902 0016692 259.1646 100.7630 14.38156287621674
SL-3 R/B                
1 10114U 77057B   25362.96733227  .00016353  00000+0  36805-3 0  9992
2 10114  97.5690 166.9321 0007538 169.6662 190.4742 15.43355588657419
SEASAT 1                
1 10967U 78064A   25362.86959323  .00000646  00000+0  21908-3 0  9999
2 10967 108.0142 336.8762 0001256 257.6023 102.4982 14.46080304496279
SL-14 R/B               
1 11267U 79011B   25362.95327112  .00001046  00000+0  10114-3 0  9993
2 11267  82.5239 163.6667 0014758 296.4039  63.5666 14.91792259518231
SL-8 R/B                
1 11574U 79089B   25362.92834537  .00000359  00000+0  11661-3 0  9994
2 11574  74.0671 222.0175 0014827  49.8245 310.4207 14.42294223425908
SL-14 R/B               
1 11672U 80005B   25362.78565772  .00000761  00000+0  74624-4 0  9995
2 11672  82.5139  14.4796 0016873  44.3228 315.9339 14.90811382465922
SL-8 R/B                
1 12139U 81003B   25362.73702178  .00023863  00000+0  63109-3 0  9994
2 12139  82.9359 355.4836 0276963  65.3668 297.6138 15.07563051303976
SL-3 R/B                
1 12465U 81046B   25362.94073622  .00015901  00000+0  39583-3 0  9994
2 12465  81.2326  14.5511 0018008 264.7554  95.1633 15.39962323427530
SL-3 R/B                
1 12904U 81103B   25362.91656735  .00008941  00000+0  40785-3 0  9997
2 12904  81.1593 296.4065 0013165 156.2387 203.9454 15.20432999962474
SL-3 R/B                
1 13068U 82013B   25362.95685490  .00006959  00000+0  30816-3 0  9995
2 13068  81.1741 243.6263 0024009  59.1557 301.2032 15.21234196393599
SL-3 R/B                
1 13154U 82039B   25362.87900889  .00004452  00000+0  27274-3 0  9992
2 13154  81.1702 297.5284 0029463 197.4020 162.6198 15.09624153370952
